CCSDS_OMM_VERS = 2.0
CREATION_DATE  = 
ORIGINATOR     = 

OBJECT_NAME    = SL-16 R/B
OBJECT_ID      = 1993-016B
CENTER_NAME    = EARTH
REF_FRAME      = TEME
TIME_SYSTEM    = UTC
MEAN_ELEMENT_THEORY = SGP/SGP4

EPOCH          = 2025-12-30T05:35:56.509152
MEAN_MOTION    = 14.15295267
ECCENTRICITY   = .00080565
INCLINATION    = 71.0087
RA_OF_ASC_NODE = 1.0609
ARG_OF_PERICENTER = 62.3885
MEAN_ANOMALY   = 297.8055

EPHEMERIS_TYPE = 0
CLASSIFICATION_TYPE = U
NORAD_CAT_ID   = 22566
ELEMENT_SET_NO = 999
REV_AT_EPOCH   = 69234
BSTAR          = .77691768E-4
MEAN_MOTION_DOT = .104E-5
MEAN_MOTION_DDOT = 0

CCSDS_OMM_VERS = 2.0
CREATION_DATE  = 
ORIGINATOR     = 

OBJECT_NAME    = COSMOS 2242
OBJECT_ID      = 1993-024A
CENTER_NAME    = EARTH
REF_FRAME      = TEME
TIME_SYSTEM    = UTC
MEAN_ELEMENT_THEORY = SGP/SGP4

EPOCH          = 2025-12-30T03:48:08.356320
MEAN_MOTION    = 14.96187901
ECCENTRICITY   = .00163966
INCLINATION    = 82.5193
RA_OF_ASC_NODE = 333.1947
ARG_OF_PERICENTER = 172.8942
MEAN_ANOMALY   = 187.2516

EPHEMERIS_TYPE = 0
CLASSIFICATION_TYPE = U
NORAD_CAT_ID   = 22626
ELEMENT_SET_NO = 999
REV_AT_EPOCH   = 76999
BSTAR          = .29976526E-3
MEAN_MOTION_DOT = .3411E-4
MEAN_MOTION_DDOT = 0

CCSDS_OMM_VERS = 2.0
CREATION_DATE  = 
ORIGINATOR     = 

OBJECT_NAME    = SL-16 R/B
OBJECT_ID      = 1993-059B
CENTER_NAME    = EARTH
REF_FRAME      = TEME
TIME_SYSTEM    = UTC
MEAN_ELEMENT_THEORY = SGP/SGP4

EPOCH          = 2025-12-30T03:58:50.869056
MEAN_MOTION    = 14.17218764
ECCENTRICITY   = .00188772
INCLINATION    = 70.9896
RA_OF_ASC_NODE = 157.7390
ARG_OF_PERICENTER = 311.1492
MEAN_ANOMALY   = 48.8002

EPHEMERIS_TYPE = 0
CLASSIFICATION_TYPE = U
NORAD_CAT_ID   = 22803
ELEMENT_SET_NO = 999
REV_AT_EPOCH   = 66968
BSTAR          = .87671646E-4
MEAN_MOTION_DOT = .129E-5
MEAN_MOTION_DDOT = 0

CCSDS_OMM_VERS = 2.0
CREATION_DATE  = 
ORIGINATOR     = 

OBJECT_NAME    = ARIANE 40 R/B
OBJECT_ID      = 1993-061H
CENTER_NAME    = EARTH
REF_FRAME      = TEME
TIME_SYSTEM    = UTC
MEAN_ELEMENT_THEORY = SGP/SGP4

EPOCH          = 2025-12-30T03:30:48.638592
MEAN_MOTION    = 14.32814198
ECCENTRICITY   = .00116674
INCLINATION    = 98.5052
RA_OF_ASC_NODE = 69.3578
ARG_OF_PERICENTER = 127.3159
MEAN_ANOMALY   = 232.9090

EPHEMERIS_TYPE = 0
CLASSIFICATION_TYPE = U
NORAD_CAT_ID   = 22830
ELEMENT_SET_NO = 999
REV_AT_EPOCH   = 68414
BSTAR          = .17612443E-3
MEAN_MOTION_DOT = .437E-5
MEAN_MOTION_DDOT = 0

CCSDS_OMM_VERS = 2.0
CREATION_DATE  = 
ORIGINATOR     = 

OBJECT_NAME    = COSMOS 2278
OBJECT_ID      = 1994-023A
CENTER_NAME    = EARTH
REF_FRAME      = TEME
TIME_SYSTEM    = UTC
MEAN_ELEMENT_THEORY = SGP/SGP4

EPOCH          = 2025-12-30T05:12:45.186624
MEAN_MOTION    = 14.14351224
ECCENTRICITY   = .00076115
INCLINATION    = 71.0538
RA_OF_ASC_NODE = 320.4439
ARG_OF_PERICENTER = 147.9045
MEAN_ANOMALY   = 212.2543

EPHEMERIS_TYPE = 0
CLASSIFICATION_TYPE = U
NORAD_CAT_ID   = 23087
ELEMENT_SET_NO = 999
REV_AT_EPOCH   = 63498
BSTAR          = .1992979E-3
MEAN_MOTION_DOT = .334E-5
MEAN_MOTION_DDOT = 0

CCSDS_OMM_VERS = 2.0
CREATION_DATE  = 
ORIGINATOR     = 

OBJECT_NAME    = SL-16 R/B
OBJECT_ID      = 1994-023B
CENTER_NAME    = EARTH
REF_FRAME      = TEME
TIME_SYSTEM    = UTC
MEAN_ELEMENT_THEORY = SGP/SGP4

EPOCH          = 2025-12-30T07:05:07.821024
MEAN_MOTION    = 14.14998570
ECCENTRICITY   = .00023483
INCLINATION    = 70.9971
RA_OF_ASC_NODE = 216.6192
ARG_OF_PERICENTER = 359.2259
MEAN_ANOMALY   = 0.8860

EPHEMERIS_TYPE = 0
CLASSIFICATION_TYPE = U
NORAD_CAT_ID   = 23088
ELEMENT_SET_NO = 999
REV_AT_EPOCH   = 63627
BSTAR          = .17572565E-4
MEAN_MOTION_DOT = -.14E-6
MEAN_MOTION_DDOT = 0

CCSDS_OMM_VERS = 2.0
CREATION_DATE  = 
ORIGINATOR     = 

OBJECT_NAME    = SL-16 R/B
OBJECT_ID      = 1994-074B
CENTER_NAME    = EARTH
REF_FRAME      = TEME
TIME_SYSTEM    = UTC
MEAN_ELEMENT_THEORY = SGP/SGP4

EPOCH          = 2025-12-30T07:40:18.319008
MEAN_MOTION    = 14.79312015
ECCENTRICITY   = .00080546
INCLINATION    = 97.7186
RA_OF_ASC_NODE = 32.9239
ARG_OF_PERICENTER = 88.0539
MEAN_ANOMALY   = 282.6648

EPHEMERIS_TYPE = 0
CLASSIFICATION_TYPE = U
NORAD_CAT_ID   = 23343
ELEMENT_SET_NO = 999
REV_AT_EPOCH   = 67699
BSTAR          = .12096491E-3
MEAN_MOTION_DOT = .851E-5
MEAN_MOTION_DDOT = 0

CCSDS_OMM_VERS = 2.0
CREATION_DATE  = 
ORIGINATOR     = 

OBJECT_NAME    = SL-16 R/B
OBJECT_ID      = 1994-077B
CENTER_NAME    = EARTH
REF_FRAME      = TEME
TIME_SYSTEM    = UTC
MEAN_ELEMENT_THEORY = SGP/SGP4

EPOCH          = 2025-12-30T02:12:21.357504
MEAN_MOTION    = 14.15550761
ECCENTRICITY   = .00050257
INCLINATION    = 70.9826
RA_OF_ASC_NODE = 138.9097
ARG_OF_PERICENTER = 270.4537
MEAN_ANOMALY   = 89.6010

EPHEMERIS_TYPE = 0
CLASSIFICATION_TYPE = U
NORAD_CAT_ID   = 23405
ELEMENT_SET_NO = 999
REV_AT_EPOCH   = 60638
BSTAR          = -.91699177E-4
MEAN_MOTION_DOT = -.227E-5
MEAN_MOTION_DDOT = 0

CCSDS_OMM_VERS = 2.0
CREATION_DATE  = 
ORIGINATOR     = 

OBJECT_NAME    = ARIANE 40+ R/B
OBJECT_ID      = 1995-021B
CENTER_NAME    = EARTH
REF_FRAME      = TEME
TIME_SYSTEM    = UTC
MEAN_ELEMENT_THEORY = SGP/SGP4

EPOCH          = 2025-12-30T04:18:27.491040
MEAN_MOTION    = 14.39710109
ECCENTRICITY   = .00065512
INCLINATION    = 98.4629
RA_OF_ASC_NODE = 71.5562
ARG_OF_PERICENTER = 359.9634
MEAN_ANOMALY   = 54.2248

EPHEMERIS_TYPE = 0
CLASSIFICATION_TYPE = U
NORAD_CAT_ID   = 23561
ELEMENT_SET_NO = 999
REV_AT_EPOCH   = 60924
BSTAR          = .17616973E-3
MEAN_MOTION_DOT = .508E-5
MEAN_MOTION_DDOT = 0

CCSDS_OMM_VERS = 2.0
CREATION_DATE  = 
ORIGINATOR     = 

OBJECT_NAME    = SL-16 R/B
OBJECT_ID      = 1995-058B
CENTER_NAME    = EARTH
REF_FRAME      = TEME
TIME_SYSTEM    = UTC
MEAN_ELEMENT_THEORY = SGP/SGP4

EPOCH          = 2025-12-30T07:22:46.824096
MEAN_MOTION    = 14.15482003
ECCENTRICITY   = .00143977
INCLINATION    = 71.0220
RA_OF_ASC_NODE = 325.9202
ARG_OF_PERICENTER = 231.6648
MEAN_ANOMALY   = 128.3182

EPHEMERIS_TYPE = 0
CLASSIFICATION_TYPE = U
NORAD_CAT_ID   = 23705
ELEMENT_SET_NO = 999
REV_AT_EPOCH   = 55803
BSTAR          = .97106652E-4
MEAN_MOTION_DOT = .142E-5
MEAN_MOTION_DDOT = 0

CCSDS_OMM_VERS = 2.0
CREATION_DATE  = 
ORIGINATOR     = 

OBJECT_NAME    = SL-16 R/B
OBJECT_ID      = 1996-051B
CENTER_NAME    = EARTH
REF_FRAME      = TEME
TIME_SYSTEM    = UTC
MEAN_ELEMENT_THEORY = SGP/SGP4

EPOCH          = 2025-12-30T06:21:33.503904
MEAN_MOTION    = 14.12398448
ECCENTRICITY   = .00194365
INCLINATION    = 70.7598
RA_OF_ASC_NODE = 322.1876
ARG_OF_PERICENTER = 239.8388
MEAN_ANOMALY   = 120.0806

EPHEMERIS_TYPE = 0
CLASSIFICATION_TYPE = U
NORAD_CAT_ID   = 24298
ELEMENT_SET_NO = 999
REV_AT_EPOCH   = 51184
BSTAR          = .4819446E-4
MEAN_MOTION_DOT = .4E-6
MEAN_MOTION_DDOT = 0

CCSDS_OMM_VERS = 2.0
CREATION_DATE  = 
ORIGINATOR     = 

OBJECT_NAME    = ORBVIEW 2 (SEASTAR)
OBJECT_ID      = 1997-037A
CENTER_NAME    = EARTH
REF_FRAME      = TEME
TIME_SYSTEM    = UTC
MEAN_ELEMENT_THEORY = SGP/SGP4

EPOCH          = 2025-12-30T04:51:16.539264
MEAN_MOTION    = 14.35431463
ECCENTRICITY   = .00012408
INCLINATION    = 98.8468
RA_OF_ASC_NODE = 161.7176
ARG_OF_PERICENTER = 260.4464
MEAN_ANOMALY   = 99.6580

EPHEMERIS_TYPE = 0
CLASSIFICATION_TYPE = U
NORAD_CAT_ID   = 24883
ELEMENT_SET_NO = 999
REV_AT_EPOCH   = 49850
BSTAR          = .21517511E-3
MEAN_MOTION_DOT = .571E-5
MEAN_MOTION_DDOT = 0

