SL-16 R/B               
1 22566U 93016B   25364.23329293  .00000104  00000+0  77692-4 0  9992
2 22566  71.0087   1.0609 0008056  62.3885 297.8055 14.15295267692345
COSMOS 2242             
1 22626U 93024A   25364.15843005  .00003411  00000+0  29977-3 0  9997
2 22626  82.5193 333.1947 0016396 172.8942 187.2516 14.96187901769992
SL-16 R/B               
1 22803U 93059B   25364.16586654  .00000129  00000+0  87672-4 0  9997
2 22803  70.9896 157.7390 0018877 311.1492  48.8002 14.17218764669688
ARIANE 40 R/B           
1 22830U 93061H   25364.14639628  .00000437  00000+0  17612-3 0  9996
2 22830  98.5052  69.3578 0011667 127.3159 232.9090 14.32814198684142
COSMOS 2278             
1 23087U 94023A   25364.21718966  .00000334  00000+0  19930-3 0  9992
2 23087  71.0538 320.4439 0007611 147.9045 212.2543 14.14351224634982
SL-16 R/B               
1 23088U 94023B   25364.29522941 -.00000014  00000+0  17573-4 0  9995
2 23088  70.9971 216.6192 0002348 359.2259   0.8860 14.14998570636279
SL-16 R/B               
1 23343U 94074B   25364.31965647  .00000851  00000+0  12096-3 0  9994
2 23343  97.7186  32.9239 0008054  88.0539 282.6648 14.79312015676999
SL-16 R/B               
1 23405U 94077B   25364.09191386 -.00000227  00000+0 -91699-4 0  9998
2 23405  70.9826 138.9097 0005025 270.4537  89.6010 14.15550761606387
ARIANE 40+ R/B          
1 23561U 95021B   25364.17948485  .00000508  00000+0  17617-3 0  9997
2 23561  98.4629  71.5562 0006551 359.9634  54.2248 14.39710109609240
SL-16 R/B               
1 23705U 95058B   25364.30748639  .00000142  00000+0  97107-4 0  9998
2 23705  71.0220 325.9202 0014397 231.6648 128.3182 14.15482003558032
SL-16 R/B               
1 24298U 96051B   25364.26497111  .00000040  00000+0  48194-4 0  9990
2 24298  70.7598 322.1876 0019436 239.8388 120.0806 14.12398448511846
ORBVIEW 2 (SEASTAR)     
1 24883U 97037A   25364.20227476  .00000571  00000+0  21518-3 0  9993
2 24883  98.8468 161.7176 0001240 260.4464  99.6580 14.35431463498509
